NORAD_CAT_ID,OBJECT_NAME,OBJECT_TYPE,EPOCH,MEAN_MOTION,ECCENTRICITY,INCLINATION,RA_OF_ASC_NODE,ARG_OF_PERICENTER,MEAN_ANOMALY,BSTAR,MEAN_MOTION_DOT,MEAN_MOTION_DDOT,TLE_LINE0,TLE_LINE1,TLE_LINE2,SEMIMAJOR_AXIS,PERIOD,APOGEE,PERIGEE,DECAYED
53745.0,STARLINK-4656,PAYLOAD,2024-07-05 05:56:23,15.08848934,0.0001307,53.2158,133.6065,89.2538,270.8604,9.1354e-05,1.167e-05,0.0,0 STARLINK-4656,1 53745U 22107AX  24187.24749556  .00001167  00000-0  91354-4 0  9991,2 53745  53.2158 133.6065 0001307  89.2538 270.8604 15.08848934101357,6917.853,95.437,540.622,538.814,0.0
53745.0,STARLINK-4656,PAYLOAD,2024-07-05 13:53:19,15.08841476,0.0001524,53.2173,132.1186,95.062,265.0546,6.1013e-05,6.83e-06,0.0,0 STARLINK-4656,1 53745U 22107AX  24187.57870053  .00000683  00000-0  61013-4 0  9995,2 53745  53.2173 132.1186 0001524  95.0620 265.0546 15.08841476102187,6917.876,95.437,540.795,538.687,0.0
53745.0,STARLINK-4656,PAYLOAD,2024-07-06 13:44:06,15.08839295,0.0001506,53.2163,127.6605,111.9651,248.1501,-2.3617e-05,-6.64e-06,0.0,0 STARLINK-4656,1 53745U 22107AX  24188.57230246 -.00000664  00000-0 -23617-4 0  9999,2 53745  53.2163 127.6605 0001506 111.9651 248.1501 15.08839295102339,6917.883,95.438,540.789,538.706,0.0
53745.0,STARLINK-4656,PAYLOAD,2024-07-07 02:27:12,15.08838994,0.0001478,53.2174,125.2805,99.3361,260.7798,8.7276e-06,-1.49e-06,0.0,0 STARLINK-4656,1 53745U 22107AX  24189.10222428 -.00000149  00000-0  87276-5 0  9991,2 53745  53.2174 125.2805 0001478  99.3361 260.7798 15.08838994101637,6917.883,95.438,540.771,538.726,0.0
53745.0,STARLINK-4656,PAYLOAD,2024-07-08 11:50:17,15.08842489,0.0001162,53.2147,119.0365,89.4263,270.6862,7.7572e-05,9.47e-06,0.0,0 STARLINK-4656,1 53745U 22107AX  24190.49326228  .00000947  00000-0  77572-4 0  9990,2 53745  53.2147 119.0365 0001162  89.4263 270.6862 15.08842489101849,6917.873,95.437,540.542,538.934,0.0
53745.0,STARLINK-4656,PAYLOAD,2024-07-08 22:58:00,15.08839182,0.000112,53.2155,116.958,88.057,272.0551,0.00013836,1.915e-05,0.0,0 STARLINK-4656,1 53745U 22107AX  24190.95694483  .00001915  00000-0  13836-3 0  9990,2 53745  53.2155 116.9580 0001120  88.0570 272.0551 15.08839182102694,6917.883,95.438,540.523,538.973,0.0
53745.0,STARLINK-4656,PAYLOAD,2024-07-09 02:08:46,15.08844074,0.0001201,53.2152,116.3601,84.1661,275.9468,0.00010781,1.429e-05,0.0,0 STARLINK-4656,1 53745U 22107AX  24191.08942229  .00001429  00000-0  10781-3 0  9995,2 53745  53.2152 116.3601 0001201  84.1661 275.9468 15.08844074102715,6917.868,95.437,540.564,538.902,0.0
53745.0,STARLINK-4656,PAYLOAD,2024-07-09 18:02:37,15.08835744,0.0001307,53.2152,113.3869,88.1525,271.9617,-6.2753e-05,-1.286e-05,0.0,0 STARLINK-4656,1 53745U 22107AX  24191.75182690 -.00001286  00000-0 -62753-4 0  9997,2 53745  53.2152 113.3869 0001307  88.1525 271.9617 15.08835744102039,6917.893,95.438,540.663,538.854,0.0
53745.0,STARLINK-4656,PAYLOAD,2024-07-09 22:48:47,15.08835399,0.0001248,53.216,112.4942,92.7733,267.3402,-1.1577e-05,-4.72e-06,0.0,0 STARLINK-4656,1 53745U 22107AX  24191.95055212 -.00000472  00000-0 -11577-4 0  9992,2 53745  53.2160 112.4942 0001248  92.7733 267.3402 15.08835399102842,6917.894,95.438,540.623,538.896,0.0
53745.0,STARLINK-4656,PAYLOAD,2024-07-10 11:31:52,15.08838956,0.0001168,53.2161,110.1155,78.7663,281.3461,2.6055e-05,1.27e-06,0.0,0 STARLINK-4656,1 53745U 22107AX  24192.48046942  .00000127  00000-0  26055-4 0  9993,2 53745  53.2161 110.1155 0001168  78.7663 281.3461 15.08838956102923,6917.884,95.438,540.557,538.941,0.0
53745.0,STARLINK-4656,PAYLOAD,2024-07-10 22:39:34,15.08839609,0.0001279,53.2175,108.0366,92.3152,267.7986,7.5479e-05,9.14e-06,0.0,0 STARLINK-4656,1 53745U 22107AX  24192.94414924  .00000914  00000-0  75479-4 0  9991,2 53745  53.2175 108.0366 0001279  92.3152 267.7986 15.08839609102999,6917.882,95.438,540.631,538.862,0.0
53745.0,STARLINK-4656,PAYLOAD,2024-07-11 03:25:43,15.08848231,0.0001208,53.2164,107.1446,96.5355,263.5775,7.3617e-05,8.84e-06,0.0,0 STARLINK-4656,1 53745U 22107AX  24193.14286351  .00000884  00000-0  73617-4 0  9993,2 53745  53.2164 107.1446 0001208  96.5355 263.5775 15.08848231102248,6917.855,95.437,540.556,538.885,0.0
53745.0,STARLINK-4656,PAYLOAD,2024-07-12 03:16:30,15.08844539,0.0001308,53.2164,102.6823,89.9811,270.1331,0.00019484,2.815e-05,0.0,0 STARLINK-4656,1 53745U 22107AX  24194.13646463  .00002815  00000-0  19484-3 0  9994,2 53745  53.2164 102.6823 0001308  89.9811 270.1331 15.08844539102396,6917.867,95.437,540.636,538.827,0.0
53745.0,STARLINK-4656,PAYLOAD,2024-07-12 11:13:26,15.08840501,0.0001258,53.2163,101.1974,85.6973,274.4163,8.7451e-05,1.104e-05,0.0,0 STARLINK-4656,1 53745U 22107AX  24194.46766972  .00001104  00000-0  87451-4 0  9998,2 53745  53.2163 101.1974 0001258  85.6973 274.4163 15.08840501102443,6917.879,95.438,540.614,538.874,0.0
53745.0,STARLINK-4656,PAYLOAD,2024-07-12 22:21:08,15.08841823,0.0001458,53.2163,99.1157,84.9489,275.167,7.4943e-05,9.05e-06,0.0,0 STARLINK-4656,1 53745U 22107AX  24194.93134982  .00000905  00000-0  74943-4 0  9990,2 53745  53.2163  99.1157 0001458  84.9489 275.1670 15.08841823103291,6917.875,95.437,540.748,538.731,0.0
53745.0,STARLINK-4656,PAYLOAD,2024-07-13 03:07:17,15.08852676,0.0001324,53.2159,98.2198,97.4707,262.6436,7.5245e-05,9.1e-06,0.0,0 STARLINK-4656,1 53745U 22107AX  24195.13006114  .00000910  00000-0  75245-4 0  9990,2 53745  53.2159  98.2198 0001324  97.4707 262.6436 15.08852676102541,6917.842,95.437,540.623,538.791,0.0
53745.0,STARLINK-4656,PAYLOAD,2024-07-13 11:04:13,15.08837762,0.0001568,53.2172,96.733,91.2226,268.8946,2.7528e-05,1.5e-06,0.0,0 STARLINK-4656,1 53745U 22107AX  24195.46127313  .00000150  00000-0  27528-4 0  9998,2 53745  53.2172  96.7330 0001568  91.2226 268.8946 15.08837762102593,6917.887,95.438,540.837,538.668,0.0
53745.0,STARLINK-4656,PAYLOAD,2024-07-13 22:11:55,15.08843757,0.0001388,53.2174,94.6529,85.8155,274.2996,9.6746e-06,-1.34e-06,0.0,0 STARLINK-4656,1 53745U 22107AX  24195.92495055 -.00000134  00000-0  96746-5 0  9992,2 53745  53.2174  94.6529 0001388  85.8155 274.2996 15.08843757103444,6917.869,95.437,540.694,538.774,0.0
53745.0,STARLINK-4656,PAYLOAD,2024-07-14 10:55:00,15.08846454,0.000143,53.218,92.2727,89.6475,270.4681,8.7148e-05,1.1e-05,0.0,0 STARLINK-4656,1 53745U 22107AX  24196.45486514  .00001100  00000-0  87148-4 0  9999,2 53745  53.2180  92.2727 0001430  89.6475 270.4681 15.08846454102748,6917.861,95.437,540.715,538.736,0.0
53745.0,STARLINK-4656,PAYLOAD,2024-07-14 22:02:42,15.08848219,0.0001432,53.2164,90.1948,86.549,273.5665,0.00022798,3.343e-05,0.0,0 STARLINK-4656,1 53745U 22107AX  24196.91854681  .00003343  00000-0  22798-3 0  9994,2 53745  53.2164  90.1948 0001432  86.5490 273.5665 15.08848219103598,6917.855,95.437,540.711,538.73,0.0
53745.0,STARLINK-4656,PAYLOAD,2024-07-14 23:38:05,15.08853163,0.0001518,53.2165,89.8968,90.9827,269.1339,0.00015475,2.177e-05,0.0,0 STARLINK-4656,1 53745U 22107AX  24196.98478383  .00002177  00000-0  15475-3 0  9990,2 53745  53.2165  89.8968 0001518  90.9827 269.1339 15.08853163103609,6917.84,95.437,540.755,538.655,0.0
53745.0,STARLINK-4656,PAYLOAD,2024-07-15 20:18:06,15.08838475,0.0001611,53.2167,86.0303,95.1062,265.0114,6.8294e-05,7.99e-06,0.0,0 STARLINK-4656,1 53745U 22107AX  24197.84591190  .00000799  00000-0  68294-4 0  9994,2 53745  53.2167  86.0303 0001611  95.1062 265.0114 15.08838475102957,6917.885,95.438,540.865,538.636,0.0
53745.0,STARLINK-4656,PAYLOAD,2024-07-15 21:53:29,15.08838526,0.0001612,53.2166,85.7336,94.6465,265.4711,6.8437e-05,8.01e-06,0.0,0 STARLINK-4656,1 53745U 22107AX  24197.91215211  .00000801  00000-0  68437-4 0  9992,2 53745  53.2166  85.7336 0001612  94.6465 265.4711 15.08838526103742,6917.885,95.438,540.865,538.635,0.0
53745.0,STARLINK-4656,PAYLOAD,2024-07-16 02:39:39,15.08842787,0.0001582,53.2165,84.8409,90.1368,269.9805,9.6928e-05,1.255e-05,0.0,0 STARLINK-4656,1 53745U 22107AX  24198.11087001  .00001255  00000-0  96928-4 0  9999,2 53745  53.2165  84.8409 0001582  90.1368 269.9805 15.08842787103771,6917.872,95.437,540.831,538.642,0.0
53745.0,STARLINK-4656,PAYLOAD,2024-07-16 21:44:16,15.0884566,0.0001598,53.2157,81.2715,92.8474,267.2701,8.8484e-05,1.121e-05,0.0,0 STARLINK-4656,1 53745U 22107AX  24198.90574809  .00001121  00000-0  88484-4 0  9993,2 53745  53.2157  81.2715 0001598  92.8474 267.2701 15.08845660103114,6917.863,95.437,540.834,538.623,0.0
53745.0,STARLINK-4656,PAYLOAD,2024-07-17 08:51:58,15.08829133,0.0001608,53.216,79.1905,96.7841,263.3334,-0.00016169,-2.86e-05,0.0,0 STARLINK-4656,1 53745U 22107AX  24199.36943236 -.00002860  00000-0 -16169-3 0  9991,2 53745  53.2160  79.1905 0001608  96.7841 263.3334 15.08829133103181,6917.914,95.438,540.891,538.666,0.0
53745.0,STARLINK-4656,PAYLOAD,2024-07-17 23:10:27,15.08835317,0.0001798,53.2154,76.5181,112.8527,247.2655,3.5121e-05,2.71e-06,0.0,0 STARLINK-4656,1 53745U 22107AX  24199.96559631  .00000271  00000-0  35121-4 0  9991,2 53745  53.2154  76.5181 0001798 112.8527 247.2655 15.08835317104057,6917.895,95.438,541.004,538.516,0.0
53745.0,STARLINK-4656,PAYLOAD,2024-07-18 00:45:50,15.08841264,0.000172,53.2165,76.22,104.6696,255.4487,0.00017305,2.467e-05,0.0,0 STARLINK-4656,1 53745U 22107AX  24200.03183451  .00002467  00000-0  17305-3 0  9997,2 53745  53.2165  76.2200 0001720 104.6696 255.4487 15.08841264103285,6917.877,95.437,540.931,538.552,0.0
53745.0,STARLINK-4656,PAYLOAD,2024-07-18 08:42:46,15.0884001,0.000142,53.2155,74.7307,93.4073,266.7081,0.00019793,2.864e-05,0.0,0 STARLINK-4656,1 53745U 22107AX  24200.36303552  .00002864  00000-0  19793-3 0  9993,2 53745  53.2155  74.7307 0001420  93.4073 266.7081 15.08840010104112,6917.88,95.438,540.728,538.763,0.0
53745.0,STARLINK-4656,PAYLOAD,2024-07-18 21:25:51,15.08839779,0.0001502,53.2167,72.3535,95.4504,264.6659,5.9301e-05,6.56e-06,0.0,0 STARLINK-4656,1 53745U 22107AX  24200.89295742  .00000656  00000-0  59301-4 0  9999,2 53745  53.2167  72.3535 0001502  95.4504 264.6659 15.08839779103414,6917.881,95.438,540.785,538.707,0.0
